OBJECT_NAME,OBJECT_ID,EPOCH,MEAN_MOTION,ECCENTRICITY,INCLINATION,RA_OF_ASC_NODE,ARG_OF_PERICENTER,MEAN_ANOMALY,EPHEMERIS_TYPE,CLASSIFICATION_TYPE,NORAD_CAT_ID,ELEMENT_SET_NO,REV_AT_EPOCH,BSTAR,MEAN_MOTION_DOT,MEAN_MOTION_DDOT
STARLINK-33699,2025-057X,2026-01-26T14:57:40.524480,15.27614475,.00004537,42.9960,260.6537,48.1222,311.9668,0,U,63328,999,4939,.14912434E-2,.41046E-3,0
STARLINK-33674,2025-057Y,2026-01-25T17:03:51.181056,15.27601855,.00012415,42.9990,273.6330,261.2018,98.8693,0,U,63329,999,4920,.15748067E-2,.43357E-3,0
YUNYAO-1 43,2025-059A,2026-01-26T15:42:56.300256,15.09899034,.00138217,97.6037,208.8930,281.2436,78.7240,0,U,63344,999,4693,.42664205E-3,.6865E-4,0
YUNYAO-1 44,2025-059B,2026-01-26T13:51:01.489248,15.09905857,.00162376,97.6027,208.7920,284.8047,75.1383,0,U,63345,999,4692,.41521224E-3,.6686E-4,0
YUNYAO-1 45,2025-059C,2026-01-26T15:14:20.374656,15.09915346,.00151088,97.6056,208.9832,284.1390,75.8160,0,U,63346,999,4693,.39140663E-3,.6297E-4,0
YUNYAO-1 46,2025-059D,2026-01-26T15:58:21.526752,15.09892551,.00111157,97.6046,208.9212,272.4681,87.5276,0,U,63347,999,4693,.37197823E-3,.597E-4,0
YUNYAO-1 47,2025-059E,2026-01-26T14:41:47.662944,15.10071557,.00151446,97.6021,208.8812,285.5603,74.3954,0,U,63348,999,4692,.34765961E-3,.561E-4,0
YUNYAO-1 48,2025-059F,2026-01-26T15:57:50.675904,15.10141241,.00146755,97.6030,209.0136,287.2628,72.6995,0,U,63349,999,4693,.37448976E-3,.6059E-4,0
LEMUR-2-UNTITLED-SC,2025-061A,2026-01-26T08:26:08.021472,15.12193652,.00204554,97.5489,3.0012,38.1946,322.0730,0,U,63351,999,4614,.42411697E-3,.7294E-4,0
LEMUR-2-ESPERANZA,2025-061B,2026-01-26T11:15:18.417888,15.12289074,.00200606,97.5499,3.1795,37.4512,322.8112,0,U,63352,999,4616,.40321727E-3,.6948E-4,0
LEMUR-2-KREMPEL-BRO2,2025-061C,2026-01-26T11:15:22.260960,15.12679852,.00208141,97.5549,3.5340,30.5304,329.7134,0,U,63353,999,4617,.41496593E-3,.7234E-4,0
LEMUR-2-THERMORAPTOR,2025-061D,2026-01-25T20:41:49.257888,15.12738795,.00206118,97.5556,2.9834,31.6457,328.6008,0,U,63354,999,4608,.42959835E-3,.7503E-4,0
LEMUR-2-NEUROSPICY,2025-061E,2026-01-25T20:16:00.104160,15.12836132,.00185409,97.5479,2.7042,36.0286,324.2191,0,U,63355,999,4608,.41606218E-3,.7277E-4,0
LEMUR-2-TILLINFINITY,2025-061F,2026-01-26T09:32:10.893984,15.13427613,.00193903,97.5463,3.4423,22.8414,337.3676,0,U,63356,999,4618,.40781768E-3,.7254E-4,0
LEMUR-2-KREMPEL-BRO1,2025-061G,2026-01-26T10:04:54.724512,15.13276728,.00199743,97.5464,3.4175,23.3151,336.8981,0,U,63357,999,4618,.42774823E-3,.7582E-4,0
LEMUR-2-LANGER2SPACE,2025-061H,2026-01-26T11:36:59.118048,15.12956057,.00181996,97.5468,3.3530,31.9967,328.2365,0,U,63358,999,4618,.43723867E-3,.7676E-4,0
TIANLIAN 2-04,2025-062A,2026-01-26T14:04:50.801376,1.00271613,.00361764,4.7388,276.3653,6.2945,134.4610,0,U,63361,999,318,0,-.119E-5,0
STARLINK-32840,2025-063A,2026-01-26T14:04:59.202048,15.30219039,.00029329,53.1528,245.1796,87.4160,272.7176,0,U,63363,999,4833,.98074209E-3,.28819E-3,0
STARLINK-32543,2025-063B,2026-01-26T14:03:27.836640,15.30217390,.00008962,53.1582,245.1712,1.1946,358.9057,0,U,63364,999,4834,.95710484E-3,.2811E-3,0
STARLINK-33741,2025-063C,2026-01-26T14:36:17.800704,15.30227008,.00027816,53.1547,248.1386,90.0422,270.0897,0,U,63365,999,4831,.16898233E-2,.50071E-3,0
STARLINK-33742,2025-063D,2026-01-26T07:32:59.056224,15.30201939,.00030951,53.1489,249.1490,76.2765,283.8580,0,U,63366,999,4822,.10448117E-2,.30717E-3,0
STARLINK-33734,2025-063E,2026-01-26T15:48:56.638368,15.30183305,.00024169,53.1587,257.6673,93.5607,266.5670,0,U,63367,999,4813,.12957643E-2,.38197E-3,0
STARLINK-33578,2025-063F,2026-01-26T14:49:02.870112,15.30232093,.00005939,53.1573,245.3579,48.3191,311.7861,0,U,63368,999,4829,.17918336E-2,.53143E-3,0
STARLINK-33626,2025-063G,2026-01-26T15:07:18.206112,15.30246424,.00008233,53.1591,245.4305,84.7455,275.3640,0,U,63369,999,4830,.15484568E-2,.45851E-3,0
STARLINK-33657,2025-063H,2026-01-25T21:03:28.320768,15.30212661,.00006362,53.1620,251.3981,129.8394,230.2663,0,U,63370,999,4815,.89946287E-3,.26385E-3,0
STARLINK-33648,2025-063J,2026-01-26T14:31:46.016544,15.30187491,.00015358,53.1583,248.1217,101.2423,258.8751,0,U,63371,999,4831,.10991162E-2,.32323E-3,0
STARLINK-33614,2025-063K,2026-01-26T14:46:00.411456,15.30211025,.00003392,53.1550,245.3404,3.8268,356.2735,0,U,63372,999,4835,.10697055E-2,.31468E-3,0
STARLINK-33617,2025-063L,2026-01-25T15:09:07.967808,15.30231025,.00021,53.1538,249.8601,95.9546,264.1694,0,U,63373,999,4815,.16175E-2,.47904E-3,0
STARLINK-33618,2025-063M,2026-01-26T14:35:22.158240,15.30198332,.00017992,53.1584,245.2915,89.5836,270.5371,0,U,63374,999,4835,.40635448E-3,.11694E-3,0
STARLINK-33621,2025-063N,2026-01-26T14:33:50.940576,15.30197301,.00016582,53.1570,245.2851,97.2029,262.9160,0,U,63375,999,4830,.21942808E-3,.6144E-4,0
