STARLINK-33699          
1 63328U 25057X   26026.62338570  .00041046  00000+0  14912-2 0  9994
2 63328  42.9960 260.6537 0000453  48.1222 311.9668 15.27614475 49395
STARLINK-33674          
1 63329U 25057Y   26025.71100904  .00043357  00000+0  15748-2 0  9997
2 63329  42.9990 273.6330 0001241 261.2018  98.8693 15.27601855 49208
YUNYAO-1 43             
1 63344U 25059A   26026.65481829  .00006865  00000+0  42664-3 0  9999
2 63344  97.6037 208.8930 0013821 281.2436  78.7240 15.09899034 46933
YUNYAO-1 44             
1 63345U 25059B   26026.57710057  .00006686  00000+0  41521-3 0  9991
2 63345  97.6027 208.7920 0016237 284.8047  75.1383 15.09905857 46921
YUNYAO-1 45             
1 63346U 25059C   26026.63495804  .00006297  00000+0  39141-3 0  9992
2 63346  97.6056 208.9832 0015108 284.1390  75.8160 15.09915346 46933
YUNYAO-1 46             
1 63347U 25059D   26026.66552693  .00005970  00000+0  37198-3 0  9993
2 63347  97.6046 208.9212 0011115 272.4681  87.5276 15.09892551 46932
YUNYAO-1 47             
1 63348U 25059E   26026.61235721  .00005610  00000+0  34766-3 0  9998
2 63348  97.6021 208.8812 0015144 285.5603  74.3954 15.10071557 46929
YUNYAO-1 48             
1 63349U 25059F   26026.66516986  .00006059  00000+0  37449-3 0  9998
2 63349  97.6030 209.0136 0014675 287.2628  72.6995 15.10141241 46931
LEMUR-2-UNTITLED-SC     
1 63351U 25061A   26026.35148173  .00007294  00000+0  42412-3 0  9997
2 63351  97.5489   3.0012 0020455  38.1946 322.0730 15.12193652 46142
LEMUR-2-ESPERANZA       
1 63352U 25061B   26026.46896317  .00006948  00000+0  40322-3 0  9993
2 63352  97.5499   3.1795 0020060  37.4512 322.8112 15.12289074 46164
LEMUR-2-KREMPEL-BRO2    
1 63353U 25061C   26026.46900765  .00007234  00000+0  41497-3 0  9990
2 63353  97.5549   3.5340 0020814  30.5304 329.7134 15.12679852 46179
LEMUR-2-THERMORAPTOR    
1 63354U 25061D   26025.86237567  .00007503  00000+0  42960-3 0  9992
2 63354  97.5556   2.9834 0020611  31.6457 328.6008 15.12738795 46085
LEMUR-2-NEUROSPICY      
1 63355U 25061E   26025.84444565  .00007277  00000+0  41606-3 0  9993
2 63355  97.5479   2.7042 0018540  36.0286 324.2191 15.12836132 46085
LEMUR-2-TILLINFINITY    
1 63356U 25061F   26026.39734831  .00007254  00000+0  40782-3 0  9992
2 63356  97.5463   3.4423 0019390  22.8414 337.3676 15.13427613 46185
LEMUR-2-KREMPEL-BRO1    
1 63357U 25061G   26026.42007783  .00007582  00000+0  42775-3 0  9994
2 63357  97.5464   3.4175 0019974  23.3151 336.8981 15.13276728 46185
LEMUR-2-LANGER2SPACE    
1 63358U 25061H   26026.48401757  .00007676  00000+0  43724-3 0  9999
2 63358  97.5468   3.3530 0018199  31.9967 328.2365 15.12956057 46182
TIANLIAN 2-04           
1 63361U 25062A   26026.58669909 -.00000119  00000+0  00000+0 0  9992
2 63361   4.7388 276.3653 0036176   6.2945 134.4610  1.00271613  3184
STARLINK-32840          
1 63363U 25063A   26026.58679632  .00028819  00000+0  98074-3 0  9997
2 63363  53.1528 245.1796 0002932  87.4160 272.7176 15.30219039 48336
STARLINK-32543          
1 63364U 25063B   26026.58573885  .00028110  00000+0  95710-3 0  9999
2 63364  53.1582 245.1712 0000896   1.1946 358.9057 15.30217390 48341
STARLINK-33741          
1 63365U 25063C   26026.60853936  .00050071  00000+0  16898-2 0  9991
2 63365  53.1547 248.1386 0002781  90.0422 270.0897 15.30227008 48314
STARLINK-33742          
1 63366U 25063D   26026.31457241  .00030717  00000+0  10448-2 0  9999
2 63366  53.1489 249.1490 0003095  76.2765 283.8580 15.30201939 48228
STARLINK-33734          
1 63367U 25063E   26026.65898887  .00038197  00000+0  12958-2 0  9990
2 63367  53.1587 257.6673 0002416  93.5607 266.5670 15.30183305 48132
STARLINK-33578          
1 63368U 25063F   26026.61739433  .00053143  00000+0  17918-2 0  9997
2 63368  53.1573 245.3579 0000593  48.3191 311.7861 15.30232093 48298
STARLINK-33626          
1 63369U 25063G   26026.63007183  .00045851  00000+0  15485-2 0  9994
2 63369  53.1591 245.4305 0000823  84.7455 275.3640 15.30246424 48305
STARLINK-33657          
1 63370U 25063H   26025.87741112  .00026385  00000+0  89946-3 0  9993
2 63370  53.1620 251.3981 0000636 129.8394 230.2663 15.30212661 48155
STARLINK-33648          
1 63371U 25063J   26026.60539371  .00032323  00000+0  10991-2 0  9990
2 63371  53.1583 248.1217 0001535 101.2423 258.8751 15.30187491 48310
STARLINK-33614          
1 63372U 25063K   26026.61528254  .00031468  00000+0  10697-2 0  9992
2 63372  53.1550 245.3404 0000339   3.8268 356.2735 15.30211025 48357
STARLINK-33617          
1 63373U 25063L   26025.63134222  .00047904  00000+0  16175-2 0  9991
2 63373  53.1538 249.8601 0002100  95.9546 264.1694 15.30231025 48152
STARLINK-33618          
1 63374U 25063M   26026.60789535  .00011694  00000+0  40635-3 0  9999
2 63374  53.1584 245.2915 0001799  89.5836 270.5371 15.30198332 48354
STARLINK-33621          
1 63375U 25063N   26026.60683959  .00006144  00000+0  21943-3 0  9998
2 63375  53.1570 245.2851 0001658  97.2029 262.9160 15.30197301 48304
